establishment_id,name,type,address,City,State,zipcode
20001,SITKA COMMUNITY HOSPITAL,Government - Local,209 MOLLER DRIVE,SITKA,AK,99835
20002,PROVIDENCE ALASKA MEDICAL CENTER,Voluntary non-profit - Church,3200 PROVIDENCE DRIVE,ANCHORAGE,AK,99508
20003,ALASKA NATIVE MEDICAL CENTER,Government - Federal,4315 DIPLOMACY DR,ANCHORAGE,AK,99508
20004,MAT-SU REGIONAL MEDICAL CENTER,Voluntary non-profit - Other,2500 SOUTH WOODWORTH LOOP,PALMER,AK,99645
20005,BARTLETT REGIONAL HOSPITAL,Government - Local,3260 HOSPITAL DR,JUNEAU,AK,99801
20006,MT EDGECUMBE HOSPITAL,Voluntary non-profit - Private,222 TONGASS DR,SITKA,AK,99835
20007,FIELD HEALTH SYSTEM,Government - Local,178 HIGHWAY 24,CENTREVILLE,MS,99901
20008,MERIT HEALTH MADISON,Proprietary,161 RIVER OAKS DRIVE,CANTON,MS,99603
20009,WEBSTER GENERAL HOSPITAL/ SWING BED,Voluntary non-profit - Other,70 MEDICAL PLAZA,EUPORA,MS,99508
20010,OCHSNER MEDICAL CENTER-HANCOCK,Government - Local,149 DRINKWATER BLVD,BAY SAINT LOUIS,MS,99701
20011,ALLIANCE HEALTHCARE SYSTEM,Physician,1430 HIGHWAY 4 EAST / P O BOX 6000,HOLLY SPRINGS,MS,35161
20012,CULLMAN REGIONAL MEDICAL CENTER,Government - Hospital District or Authority,1912 ALABAMA HIGHWAY 157,CULLMAN,AL,35058
20013,MEDICAL CENTER BARBOUR,Government - Hospital District or Authority,820 W WASHINGTON ST,EUFAULA,AL,36027
20014,DECATUR MORGAN HOSPITAL-DECATUR CAMPUS,Government - Hospital District or Authority,1201 7TH STREET SE,DECATUR,AL,35601
20015,UNIVERSITY OF S A CHILDREN'S AND WOMEN'S HOS,Government - State,1700 CENTER STREET,MOBILE,AL,36604
20016,SOUTH BALDWIN REGIONAL MEDICAL CENTER,Proprietary,1613 NORTH MCKENZIE STREET,FOLEY,AL,36535
20017,P H S INDIAN HOSPITAL AT BROWNING - BLACKFEET,Government - Federal,"760 HOSPITAL CIRCLE, POST OFFICE BOX 760",BROWNING,MT,59417
20018,MISSOURI RIVER MEDICAL CENTER,Government - Hospital District or Authority,1501 ST CHARLES ST,FORT BENTON,MT,59442
20019,P H S INDIAN HOSPITAL CROW / NORTHERN CHEYENNE,Government - Federal,"1010 SOUTH 7650 EAST, POST OFFICE BOX 9",CROW AGENCY,MT,59022
20020,CENTRAL MONTANA MEDICAL CENTER,Voluntary non-profit - Private,408 WENDELL AVE,LEWISTOWN,MT,59457
20021,DAHL MEMORIAL HEALTHCARE ASSOC,Voluntary non-profit - Private,215 SANDY ST,EKALAKA,MT,59324
20022,ONSLOW MEMORIAL HOSPITAL,Government - Hospital District or Authority,317 WESTERN BOULEVARD,JACKSONVILLE,NC,28540
20023,SCOTLAND MEMORIAL HOSPITAL,Voluntary non-profit - Private,500 LAUCHWOOD DR,LAURINBURG,NC,28352
20024,NORTH CAROLINA SPECIALTY HOSPITAL,Proprietary,3916 BEN FRANKLIN BOULEVARD,DURHAM,NC,27704
20025,NOVANT HEALTH FORSYTH MEDICAL CENTER,Voluntary non-profit - Private,3333 SILAS CREEK PARKWAY,WINSTON-SALEM,NC,27103
20026,WATAUGA MEDICAL CENTER,Government - Local,336 DEERFIELD ROAD,BOONE,NC,28607
20027,MERCY HOSPITAL FORT SMITH,Voluntary non-profit - Private,7301 ROGERS AVE,FORT SMITH,AR,72917
20028,ASHLEY COUNTY MEDICAL CENTER,Voluntary non-profit - Private,1015 UNITY ROAD,CROSSETT,AR,71635
20029,NEA BAPTIST MEMORIAL HOSPITAL,Voluntary non-profit - Private,4800 EAST JOHNSON AVENUE,JONESBORO,AR,72401
20030,CHAMBERS MEMORIAL HOSPITAL,Voluntary non-profit - Private,719 DETROIT STREET,DANVILLE,AR,72833
20031,ST MARYS REGIONAL MEDICAL CENTER,Proprietary,1808 WEST MAIN STREET,RUSSELLVILLE,AR,72801
20032,ALTRU HOSPITAL,Government - Local,1200 S COLUMBIA RD,GRAND FORKS,ND,58201
20033,P H S INDIAN HOSP AT BELCOURT-QUENTIN N BURDICK,Government - Federal,PO BOX 160,BELCOURT,ND,58316
20034,STANDING ROCK INDIAN HEALTH SERVICE HOSPITAL,Government - Federal,10 NORTH RIVER ROAD,FORT YATES,ND,58538
20035,KENMARE COMMUNITY HOSPITAL,Voluntary non-profit - Private,PO BOX 697,KENMARE,ND,58746
20036,NORTHWOOD DEACONESS HEALTH CENTER,Voluntary non-profit - Church,PO BOX 190,NORTHWOOD,ND,58267
20037,COZAD COMMUNITY HOSPITAL,Government - Hospital District or Authority,"P O BOX 108, 300 EAST 12TH ST",COZAD,NE,69130
20038,AVERA CREIGHTON HOSPITAL,Voluntary non-profit - Private,"P O BOX 186, 1503 MAIN ST",CREIGHTON,NE,68729
20039,BOONE COUNTY HEALTH CENTER,Government - Local,"P O BOX 151, 723 WEST FAIRVIEW ST",ALBION,NE,68620
20040,CALLAWAY DISTRICT HOSPITAL,Government - Hospital District or Authority,"P O BOX 100, 211 E KIMBALL",CALLAWAY,NE,68825
20041,YORK GENERAL HOSPITAL,Voluntary non-profit - Private,2222 LINCOLN AVE,YORK,NE,68467
20042,GREAT RIVER MEDICAL CENTER,Voluntary non-profit - Other,1520 N DIVISION STREET,BLYTHEVILLE,AR,72315
20043,LBJ TROPICAL MEDICAL CENTER,Government - Hospital District or Authority,FAGAALU VILLAGE,PAGO PAGO,AS,96799
20044,PARKER INDIAN HEALTH CENTER,Government - Federal,12033 AGENCY ROAD,PARKER,AZ,85344
20045,SCOTTSDALE SHEA MEDICAL CENTER,Proprietary,9003 EAST SHEA BOULEVARD,SCOTTSDALE,AZ,85260
20046,SUMMIT HEALTHCARE REGIONAL MEDICAL CENTER,Voluntary non-profit - Private,2200 EAST SHOW LOW LAKE ROAD,SHOW LOW,AZ,85901
20047,LA PAZ REGIONAL HOSPITAL,Voluntary non-profit - Private,1200 WEST MOHAVE ROAD,PARKER,AZ,85344
20048,MERCY GILBERT MEDICAL CENTER,Voluntary non-profit - Church,3555 SOUTH VAL VISTA DRIVE,GILBERT,AZ,85297
20049,PARKLAND MEDICAL CENTER,Proprietary,1 PARKLAND DRIVE,DERRY,NH,3038
20050,ANDROSCOGGIN VALLEY HOSPITAL,Voluntary non-profit - Private,59 PAGE HILL ROAD,BERLIN,NH,3570
20051,"MEMORIAL HOSPITAL, THE",Voluntary non-profit - Private,3073 WHITE MOUNTAIN HIGHWAY,NORTH CONWAY,NH,3860
20052,EXETER HOSPITAL INC,Voluntary non-profit - Private,5 ALUMNI DRIVE,EXETER,NH,3833
20053,SOUTHERN NH MEDICAL CENTER,Voluntary non-profit - Private,8 PROSPECT STREET,NASHUA,NH,3060
20054,HUDSON REGIONAL HOSPITAL,Proprietary,55 MEADOWLANDS PKWY,SECAUCUS,NJ,7094
20055,MONMOUTH MEDICAL CENTER-SOUTHERN CAMPUS,Voluntary non-profit - Private,600 RIVER AVE,LAKEWOOD,NJ,8701
20056,CHILTON MEDICAL CENTER,Voluntary non-profit - Private,97 WEST PARKWAY,POMPTON PLAINS,NJ,7444
20057,JERSEY CITY MEDICAL CENTER,Voluntary non-profit - Private,355 GRAND STREET,JERSEY CITY,NJ,7302
20058,JFK MEDICAL CTR - ANTHONY M. YELENCSICS COMMUNITY,Voluntary non-profit - Private,65 JAMES STREET,EDISON,NJ,8818
20059,DOMINICAN HOSPITAL,Proprietary,1555 SOQUEL DRIVE,SANTA CRUZ,CA,95065
20060,PETALUMA VALLEY HOSPITAL,Voluntary non-profit - Other,400 N MCDOWELL BLVD,PETALUMA,CA,94954
20061,OROVILLE HOSPITAL,Voluntary non-profit - Private,2767 OLIVE HIGHWAY,OROVILLE,CA,95966
20062,LONG BEACH MEMORIAL MEDICAL CENTER,Voluntary non-profit - Other,2801 ATLANTIC AVE,LONG BEACH,CA,90806
20063,SANTA BARBARA COTTAGE HOSPITAL,Voluntary non-profit - Private,400 WEST PUEBLO,SANTA BARBARA,CA,93102
20064,DHHS USPHS INDIAN HEALTH SERVICES,Government - Federal,EXIT #102 OFF I-40 1/2 MILE SOUTH,SAN FIDEL,NM,87049
20065,MIMBRES MEMORIAL HOSPITAL,Proprietary,900 W ASH,DEMING,NM,88031
20066,DR DAN C TRIGG MEMORIAL HOSPITAL,Voluntary non-profit - Private,301 EAST MIEL DE LUNA AVENUE,TUCUMCARI,NM,88401
20067,HOLY CROSS HOSPITAL A DIV OF TAOS HEALTH SYSTEMS,Voluntary non-profit - Private,1397 WEIMER ROAD,TAOS,NM,87571
20068,LOVELACE WOMEN'S HOSPITAL,Government - State,4701 MONTGOMERY BOULEVARD NE,ALBUQUERQUE,NM,87109
20069,OLYMPIA MEDICAL CENTER,Proprietary,5900 WEST OLYMPIC BOULEVARD,LOS ANGELES,CA,90036
20070,HENDERSON HOSPITAL,Proprietary,1050 WEST GALLERIA DRIVE,HENDERSON,NV,89011
20071,CARSON VALLEY MEDICAL CENTER,Voluntary non-profit - Private,1107 HIGHWAY 395,GARDNERVILLE,NV,89410
20072,SOUTH LYON MEDICAL CENTER,Government - Hospital District or Authority,213 S WHITACRE/PO BOX 940,YERINGTON,NV,89447
20073,NORTHEASTERN NEVADA REGIONAL HOSPITAL,Proprietary,2001 ERRECART BLVD,ELKO,NV,89801
20074,PERSHING GENERAL HOSPITAL,Government - Hospital District or Authority,855 6TH STREET/PO BOX 661,LOVELOCK,NV,89419
20075,WHITE PLAINS HOSPITAL CENTER,Voluntary non-profit - Private,41 EAST POST R0AD,WHITE PLAINS,NY,10601
20076,NORTH CENTRAL BRONX HOSPITAL,Government - Local,3424 KOSSUTH AVENUE & 210TH STREET,BRONX,NY,10467
20077,UNIVERSITY HOSPITAL AT STONY BROOK,Government - State,HEALTH SCIENCES CENTER SUNY,STONY BROOK,NY,11794
20078,CATSKILL REGIONAL MEDICAL CENTER - G HERMANN SITE,Government - Federal,8081 ROUTE 97,CALLICOON,NY,12723
20079,MAIMONIDES MEDICAL CENTER,Voluntary non-profit - Private,4802 TENTH AVENUE,BROOKLYN,NY,11219
20080,ST LUKE'S HOSPITAL,Voluntary non-profit - Other,5901 MONCLOVA ROAD,MAUMEE,OH,43537
20081,COMMUNITY MEMORIAL HOSPITAL,Government - Hospital District or Authority,208 N COLUMBUS ST,HICKSVILLE,OH,43526
20082,MERCY MEDICAL CENTER,Voluntary non-profit - Private,1320 MERCY DRIVE NW,CANTON,OH,44708
20083,"UNIVERSITY OF CINCINNATI MEDICAL CENTER, LLC",Voluntary non-profit - Private,234 GOODMAN STREET,CINCINNATI,OH,45219
20084,SOUTHEASTERN OHIO REGIONAL MEDICAL CENTER,Voluntary non-profit - Private,1341 NORTH CLARK STREET,CAMBRIDGE,OH,43725
20085,"SUTTER MEDICAL CENTER, SACRAMENTO",Voluntary non-profit - Private,2825 CAPITOL AVENUE,SACRAMENTO,CA,95816
20086,UNIVERSITY OF COLORADO HOSPITAL AUTHORITY,Government - Hospital District or Authority,12605 EAST 16TH AVENUE,AURORA,CO,80045
20087,SAN LUIS VALLEY HEALTH CONEJOS COUNTY HOSPITAL,Voluntary non-profit - Private,19021 US HIGHWAY 285,LA JARA,CO,81140
20088,KEEFE MEMORIAL HOSPITAL,Government - Hospital District or Authority,602 N 6TH W ST,CHEYENNE WELLS,CO,80810
20089,UCHEALTH PIKES PEAK REGIONAL HOSPITAL,Voluntary non-profit - Private,16420 W HIGHWAY 24,WOODLAND PARK,CO,80863
20090,MEDICAL CENTER OF THE ROCKIES,Voluntary non-profit - Private,2500 ROCKY MOUNTAIN AVENUE,LOVELAND,CO,80538
20091,"OKLAHOMA SURGICAL HOSPITAL, LLC",Physician,"2408 EAST 81ST STREET, SUITE 300",TULSA,OK,74137
20092,"MERCY HOSPITAL WATONGA, INC",Voluntary non-profit - Church,500 NORTH CLARENCE NASH BOULEVARD,WATONGA,OK,73772
20093,HOLDENVILLE GENERAL HOSPITAL,Government - Hospital District or Authority,100 MCDOUGAL DRIVE,HOLDENVILLE,OK,74848
20094,"OKLAHOMA HEART HOSPITAL, LLC",Physician,4050 WEST MEMORIAL ROAD,OKLAHOMA CITY,OK,73120
20095,NORTHWEST SURGICAL HOSPITAL,Physician,9204 NORTH MAY AVENUE,OKLAHOMA CITY,OK,73120
20096,ST CHARLES REDMOND,Voluntary non-profit - Private,1253 N CANAL BLVD,REDMOND,OR,97756
20097,PROVIDENCE PORTLAND MEDICAL CENTER,Voluntary non-profit - Church,4805 NE GLISAN STREET,PORTLAND,OR,97213
20098,GRANDE RONDE HOSPITAL,Voluntary non-profit - Private,900 SUNSET DRIVE,LA GRANDE,OR,97850
20099,MCKENZIE-WILLAMETTE MEDICAL CENTER,Voluntary non-profit - Private,1460 G STREET,SPRINGFIELD,OR,97477
20100,HARNEY DISTRICT HOSPITAL,Government - Hospital District or Authority,557 W WASHINGTON STREET,BURNS,OR,97720
20101,UPMC CHILDREN'S HOSPITAL OF PITTSBURGH,Voluntary non-profit - Other,ONE CHILDREN'S HOSPITAL DRIVE,PITTSBURGH,PA,15224
20102,CHILDREN'S HOSPITAL OF PHILADELPHIA,Voluntary non-profit - Private,34TH ST & CIVIC CENTER BLVD,PHILADELPHIA,PA,19104
20103,UPMC ALTOONA,Voluntary non-profit - Private,620 HOWARD AVENUE,ALTOONA,PA,16601
20104,MAIN LINE HOSPITAL BRYN MAWR CAMPUS,Voluntary non-profit - Private,130 SOUTH BRYN MAWR AVE,BRYN MAWR,PA,19010
20105,GEISINGER WYOMING VALLEY MEDICAL CENTER,Voluntary non-profit - Private,1000 EAST MOUNTAIN BOULEVARD,WILKES BARRE,PA,18711
20106,GRIFFIN HOSPITAL,Voluntary non-profit - Other,130 DIVISION ST,DERBY,CT,6418
20107,CONNECTICUT CHILDRENS MEDICAL CENTER,Voluntary non-profit - Private,282 WASHINGTON STREET,HARTFORD,CT,6106
20108,LAWRENCE & MEMORIAL HOSPITAL,Voluntary non-profit - Private,365 MONTAUK AVE,NEW LONDON,CT,6320
20109,NORWALK HOSPITAL ASSOCIATION,Voluntary non-profit - Private,24 STEVENS STREET,NORWALK,CT,6856
20110,DAY KIMBALL HOSPITAL,Voluntary non-profit - Private,320 POMFRET STREET,PUTNAM,CT,6260
20111,"HOSPITAL UPR, DR  FEDERICO TRILLA",Proprietary,CARR 3 KM 8  3 AVE 65TH INFANTERIA       BOX 6021,CAROLINA,PR,984
20112,HOSPITAL SAN CRISTOBAL,Voluntary non-profit - Private,CARR 506 KM 1 0,COTO LAUREL,PR,780
20113,MANATI MEDICAL CENTER DR OTERO LOPEZ,Proprietary,CALLE HERNANDEZ CARRION URB ATENAS,MANATI,PR,674
20114,CENTRO MEDICO WILMA N VAZQUEZ,Proprietary,CARR. 2 KM 39.5    ROAD NUMBER 2 BO ALGARROBO,VEGA BAJA,PR,693
20115,HOSPITAL DR SUSONI INC,Voluntary non-profit - Private,55 PALM ST,ARECIBO,PR,614
20116,KENT COUNTY MEMORIAL HOSPITAL,Proprietary,455 TOLL GATE RD,WARWICK,RI,2886
20117,WOMEN & INFANTS HOSPITAL OF RHODE ISLAND,Voluntary non-profit - Private,101 DUDLEY STREET,PROVIDENCE,RI,2905
20118,SOUTH COUNTY HOSPITAL INC,Voluntary non-profit - Private,100 KENYON AVE,WAKEFIELD,RI,2879
20119,TRMC OF ORANGEBURG & CALHOUN,Government - Local,3000 ST MATTHEWS RD BOX 1806,ORANGEBURG,SC,29115
20120,TIDELANDS WACCAMAW COMMUNITY HOSPITAL,Voluntary non-profit - Private,4070 HIGHWAY 17 BYPASS PO DRAWER 3350,MURRELLS INLET,SC,29576
20121,PALMETTO HEALTH BAPTIST PARKRIDGE,Voluntary non-profit - Private,400 PALMETTO HEALTH PARKWAY,COLUMBIA,SC,29212
20122,FAIRFIELD MEMORIAL HOSPITAL,Voluntary non-profit - Other,321 BYPASS PO BOX 620,WINNSBORO,SC,29180
20123,EAST COOPER MEDICAL CENTER,Proprietary,2000 HOSPITAL DR,MOUNT PLEASANT,SC,29464
20124,PHS INDIAN HOSPITAL AT EAGLE BUTTE,Government - Federal,24276 166TH AIRPORT ROAD,EAGLE BUTTE,SD,57625
20125,COMMUNITY MEMORIAL HOSPITAL,Voluntary non-profit - Private,809 JACKSON  POST OFFICE BOX 319,BURKE,SD,57523
20126,BENNETT COUNTY HOSPITAL AND NURSING HOME - CAH,Voluntary non-profit - Other,102 MAJOR ALLEN   POST OFFICE BOX 70D,MARTIN,SD,57551
20127,PROVIDENCE HOSPITAL,Voluntary non-profit - Private,1150 VARNUM ST NE,WASHINGTON,DC,20017
20128,GEORGE WASHINGTON UNIV HOSPITAL,Proprietary,900 23RD ST NW,WASHINGTON,DC,20037
20129,HOWARD UNIVERSITY HOSPITAL,Voluntary non-profit - Other,2041 GEORGIA AVE NW,WASHINGTON,DC,20060
20130,CHILDREN'S HOSPITAL NMC,Voluntary non-profit - Private,"111 MICHIGAN AVE, NW",WASHINGTON,DC,20010
20131,UNITED MEDICAL CENTER,Proprietary,1310 SOUTHERN AVENUE  SE,WASHINGTON,DC,20032
20132,"BAYHEALTH HOSPITAL, KENT CAMPUS",Voluntary non-profit - Private,640 S STATE STREET,DOVER,DE,19901
20133,BEEBE MEDICAL CENTER,Voluntary non-profit - Private,424 SAVANNAH RD,LEWES,DE,19958
20134,"CHRISTIANA CARE HEALTH SERVICES, INC.",Voluntary non-profit - Private,4755 OGLETOWN-STANTON ROAD,NEWARK,DE,19718
20135,BROWARD HEALTH NORTH,Government - Hospital District or Authority,201 E SAMPLE RD,POMPANO BEACH,FL,33064
20136,MEMORIAL HOSPITAL WEST,Government - Hospital District or Authority,703 N FLAMINGO RD,PEMBROKE PINES,FL,33028
20137,DESOTO MEMORIAL HOSPITAL,Voluntary non-profit - Private,900 N ROBERT AVE,ARCADIA,FL,34265
20138,AVENTURA HOSPITAL AND MEDICAL CENTER,Voluntary non-profit - Private,20900 BISCAYNE BLVD,AVENTURA,FL,33180
20139,JFK MEDICAL CENTER,Proprietary,5301 S CONGRESS AVE,ATLANTIS,FL,33462
20140,BRISTOL REGIONAL MEDICAL CENTER,Government - Hospital District or Authority,ONE MEDICAL PARK BLVD,BRISTOL,TN,37620
20141,SAINT THOMAS WEST HOSPITAL,Voluntary non-profit - Church,"4220 HARDING RD, PO BOX 380",NASHVILLE,TN,37205
20142,SOUTHERN TENNESSEE REGIONAL HEALTH SYSTEM LAWRENCE,Voluntary non-profit - Other,HWY 43 S BOX 847,LAWRENCEBURG,TN,38464
20143,TRISTAR SOUTHERN HILLS MEDICAL CENTER,Proprietary,391 WALLACE RD,NASHVILLE,TN,37211
20144,FORT SANDERS REGIONAL MEDICAL CENTER,Voluntary non-profit - Private,1901 W CLINCH AVE,KNOXVILLE,TN,37916
20145,CHILDRESS REGIONAL MEDICAL CENTER,Government - Hospital District or Authority,HWY 83 NORTH,CHILDRESS,TX,79201
20146,VALLEY REGIONAL MEDICAL CENTER,Proprietary,100 A ALTON GLOOR,BROWNSVILLE,TX,78526
20147,UT SOUTHWESTERN UNIVERSITY HOSPITAL-ZALE LIPSHY,Government - State,5151 HARRY HINES BLVD,DALLAS,TX,75390
20148,KINGWOOD MEDICAL CENTER,Proprietary,22999 US HWY 59,KINGWOOD,TX,77325
20149,US PAIN & SPINE HOSPITAL,Proprietary,5445 LABRANCH STREET,HOUSTON,TX,77004
20150,ST MARK'S HOSPITAL,Proprietary,1200 EAST 3900 SOUTH,SALT LAKE CITY,UT,84124
20151,SAN JUAN HOSPITAL,Government - Local,380 WEST 100 NORTH,MONTICELLO,UT,84535
20152,SEVIER VALLEY HOSPITAL,Voluntary non-profit - Private,1000 NORTH MAIN STREET,RICHFIELD,UT,84701
20153,MOAB REGIONAL HOSPITAL,Voluntary non-profit - Private,450 WEST WILLIAMS WAY,MOAB,UT,84532
20154,MCKAY DEE HOSPITAL,Voluntary non-profit - Private,4401 HARRISON BOULEVARD,OGDEN,UT,84403
20155,PIEDMONT MOUNTAINSIDE HOSPITAL INC,Voluntary non-profit - Other,1266 HIGHWAY 515 SOUTH,JASPER,GA,30143
20156,JEFF DAVIS HOSPITAL,Government - Hospital District or Authority,163 SOUTH TALLAHASSEE STREET,HAZLEHURST,GA,31539
20157,OPTIM MEDICAL CENTER - TATTNALL,Proprietary,247 S MAIN STREET,REIDSVILLE,GA,30453
20158,CANDLER COUNTY HOSPITAL,Government - Hospital District or Authority,400 CEDAR STREET,METTER,GA,30439
20159,DEKALB MEDICAL CENTER AT HILLANDALE,Government - Hospital District or Authority,2801 DEKALB MEDICAL PARKWAY,LITHONIA,GA,30058
20160,HIRAM W DAVIS MEDICAL CENTER,Government - State,P O BOX 4030,PETERSBURG,VA,23803
20161,CARILION TAZEWELL COMMUNITY HOSPITAL,Voluntary non-profit - Other,388 BEN BOLT AVENUE,TAZEWELL,VA,24651
20162,LEWISGALE HOSPITAL ALLEGHANY,Voluntary non-profit - Private,ONE ARH LANE - PO BOX 7,LOW MOOR,VA,24457
20163,COMMUNITY MEMORIAL HOSPITAL,Voluntary non-profit - Private,1755 NORTH MECKLENBURG AVENUE,SOUTH HILL,VA,23970
20164,NORTON COMMUNITY HOSPITAL,Voluntary non-profit - Private,100  15TH NW STREET,NORTON,VA,24273
20165,"ROY LESTER SCHNEIDER HOSPITAL,THE",Government - Local,9048 SUGAR ESTATE,ST THOMAS,VI,801
20166,GOV JUAN F LUIS HOSPITAL & MEDICAL CTR,Government - State,"#4007 EST DIAMOND RUBY, CHRISTIANSTED",ST CROIX,VI,820
20167,CENTRAL VERMONT MEDICAL CENTER,Voluntary non-profit - Private,BOX 547,BARRE,VT,5641
20168,GUAM REGIONAL MEDICAL CITY,Voluntary non-profit - Private,133 ROUTE 3,DEDEDO,GU,96929
20169,PALI MOMI MEDICAL CENTER,Proprietary,98-1079 MOANALUA ROAD,AIEA,HI,96701
20170,KAPIOLANI MEDICAL CENTER FOR WOMEN & CHILDREN,Voluntary non-profit - Private,1319 PUNAHOU STREET,HONOLULU,HI,96826
20171,SAMUEL MAHELONA MEMORIAL HOSPITAL,Government - State,4800 KAWAIHAU ROAD,KAPAA,HI,96746
20172,WILCOX MEMORIAL HOSPITAL,Government - Federal,3-3420 KUHIO HIGHWAY,LIHUE,HI,96766
20173,SHRINERS HOSPITAL FOR CHILDREN,Voluntary non-profit - Private,1310 PUNAHOU STREET,HONOLULU,HI,96826
20174,SOUTHWESTERN VERMONT MEDICAL CENTER,Voluntary non-profit - Private,100 HOSPITAL DRIVE,BENNINGTON,VT,5201
20175,GIFFORD MEDICAL CENTER,Voluntary non-profit - Private,44 SOUTH MAIN STREET,RANDOLPH,VT,5060
20176,NORTH COUNTRY HOSPITAL AND HEALTH CENTER,Voluntary non-profit - Private,189 PROUTY DRIVE,NEWPORT,VT,5855
20177,"PORTER HOSPITAL, INC",Voluntary non-profit - Private,115 PORTER DRIVE,MIDDLEBURY,VT,5753
20178,MULTICARE DEACONESS HOSPITAL,Voluntary non-profit - Private,W 800 FIFTH AVENUE,SPOKANE,WA,99210
20179,EVERGREENHEALTH MONROE,Government - Hospital District or Authority,14701 179TH SE,MONROE,WA,98272
20180,MARSHFIELD MEDICAL CENTER,Voluntary non-profit - Church,611 ST JOSEPH AVE,MARSHFIELD,WI,54449
20181,COMMUNITY MEMORIAL HOSPITAL,Voluntary non-profit - Private,W180 N8085 TOWN HALL RD,MENOMONEE FALLS,WI,53051
20182,BAY AREA MEDICAL CENTER,Voluntary non-profit - Private,3003 UNIVERSITY DR,MARINETTE,WI,54143
20183,AURORA MEDICAL CENTER,Voluntary non-profit - Private,975 PORT WASHINGTON ROAD,GRAFTON,WI,53024
20184,CHARLESTON SURGICAL HOSPITAL,Physician,1306 KANAWHA BOULEVARD EAST,CHARLESTON,WV,25301
20185,STONEWALL JACKSON MEMORIAL HOSPITAL,Voluntary non-profit - Private,230 HOSPITAL PLAZA,WESTON,WV,26452
20186,FAIRMONT REGIONAL MEDICAL CENTER,Voluntary non-profit - Private,1325 LOCUST AVENUE,FAIRMONT,WV,26554
20187,PLATEAU MEDICAL CENTER,Proprietary,"430 MAIN STREET, WEST",OAK HILL,WV,25901
20188,POCAHONTAS COMMUNITY HOSPITAL,Government - Local,606 N W 7TH STREET,POCAHONTAS,IA,50574
20189,VETERANS MEMORIAL HOSPITAL,Government - Local,40 1ST STREET SE,WAUKON,IA,52172
20190,CLARKE COUNTY HOSPITAL,Voluntary non-profit - Other,800 S FILLMORE ST,OSCEOLA,IA,50213
20191,IOWA LUTHERAN HOSPITAL,Voluntary non-profit - Private,700 EAST UNIVERSITY AVENUE,DES MOINES,IA,50316
20192,ST LUKES HOSPITAL,Voluntary non-profit - Private,1026 A AVE NE,CEDAR RAPIDS,IA,52402
20193,LUCAS COUNTY HEALTH CENTER,Voluntary non-profit - Other,1200 NORTH 7TH STREET,CHARITON,IA,50049
20194,SAGEWEST HEALTH CARE,Proprietary,2100 W SUNSET DR,RIVERTON,WY,82501
20195,NIOBRARA HEALTH & LIFE CENTER,Government - Hospital District or Authority,921 SOUTH BALLANCEE AVENUE,LUSK,WY,82225
20196,CAMPBELL COUNTY MEMORIAL HOSPITAL,Government - Hospital District or Authority,501 SOUTH BURMA AVENUE,GILLETTE,WY,82716
20197,MEMORIAL HOSPITAL OF CARBON COUNTY,Government - Local,2221 WEST ELM STREET,RAWLINS,WY,82301
20198,IVINSON MEMORIAL HOSPITAL,Government - Hospital District or Authority,255 N 30TH,LARAMIE,WY,82072
20199,QUEENS HOSPITAL CENTER,Government - Local,82-68 164TH STREET,JAMAICA,NY,11432
20200,METROPOLITAN HOSPITAL CENTER,Government - Local,1901 FIRST AVENUE,NEW YORK,NY,10029
20201,COLUMBIA MEMORIAL HOSPITAL,Voluntary non-profit - Private,71 PROSPECT AVENUE,HUDSON,NY,12534
20202,MOUNT ST MARY'S HOSPITAL AND  HEALTH CENTER,Voluntary non-profit - Church,5300 MILITARY ROAD,LEWISTON,NY,14092
20203,ORANGE REGIONAL MEDICAL CENTER,Voluntary non-profit - Private,707 EAST MAIN STREET,MIDDLETOWN,NY,10940
20204,BOUNDARY COMMUNITY HOSPITAL,Voluntary non-profit - Other,6640 KANIKSU STREET,BONNERS FERRY,ID,83805
20205,POWER COUNTY HOSPITAL DISTRICT,Government - Hospital District or Authority,510 ROOSEVELT STREET,AMERICAN FALLS,ID,83211
20206,BINGHAM MEMORIAL HOSPITAL,Voluntary non-profit - Private,98 POPLAR STREET,BLACKFOOT,ID,83221
20207,ST LUKE'S WOOD RIVER MEDICAL CENTER,Voluntary non-profit - Private,100 HOSPITAL DRIVE,KETCHUM,ID,83340
20208,ST LUKE'S REGIONAL MEDICAL CENTER,Voluntary non-profit - Private,190 EAST BANNOCK STREET,BOISE,ID,83712
20209,FRANKLIN COUNTY MEDICAL CENTER,Government - Local,44 NORTH FIRST EAST,PRESTON,ID,83263
20210,NORTH CANYON MEDICAL CENTER,Voluntary non-profit - Private,267 NORTH CANYON DR,GOODING,ID,83330
20211,GRITMAN MEDICAL CENTER,Voluntary non-profit - Private,700 SOUTH MAIN STREET,MOSCOW,ID,83843
20212,VALOR HEALTH,Government - Local,1202 EAST LOCUST STREET,EMMETT,ID,83617
20213,ST MARY'S HOSPITAL,Voluntary non-profit - Private,701 LEWISTON ST,COTTONWOOD,ID,83522
20214,ST LUKE'S MAGIC VALLEY RMC,Voluntary non-profit - Private,801 POLE LINE ROAD WEST,TWIN FALLS,ID,83301
20215,ST LUKE'S MCCALL,Voluntary non-profit - Private,1000 STATE STREET,MC CALL,ID,83638
20216,TETON VALLEY HOSPITAL,Voluntary non-profit - Private,120 EAST HOWARD AVE,DRIGGS,ID,83422
20217,LOST RIVERS MEDICAL CENTER,Government - Hospital District or Authority,551 HIGHLAND DRIVE,ARCO,ID,83213
20218,BEAR LAKE MEMORIAL HOSPITAL,Government - Local,164 SOUTH FIFTH STREET,MONTPELIER,ID,83254
20219,PROVIDENT HOSPITAL OF CHICAGO,Government - Local,500 E 51ST ST,CHICAGO,IL,60615
20220,SSM HEALTH ST MARY'S HOSPITAL -CENTRALIA,Voluntary non-profit - Church,400 NORTH PLEASANT AVENUE,CENTRALIA,IL,62801
20221,SILVER CROSS HOSPITAL  AND MEDICAL CENTERS,Voluntary non-profit - Private,1900 SILVER CROSS BLVD,NEW LENOX,IL,60451
20222,PRESENCE SAINT JOSEPH HOSPITAL - ELGIN,Voluntary non-profit - Church,77 N AIRLITE STREET,ELGIN,IL,60123
20223,GIBSON COMMUNITY HOSPITAL,Voluntary non-profit - Private,1120 N MELVIN STREET,GIBSON CITY,IL,60936
20224,SAINT ANTHONY MEDICAL CENTER,Voluntary non-profit - Church,5666 EAST STATE STREET,ROCKFORD,IL,61108
20225,DELNOR COMMUNITY HOSPITAL,Voluntary non-profit - Private,300 RANDALL RD,GENEVA,IL,60134
20226,COMMUNITY FIRST MEDICAL CENTER,Voluntary non-profit - Private,5645 W ADDISON STREET,CHICAGO,IL,60634
20227,TRINITY ROCK ISLAND,Voluntary non-profit - Other,2701 17TH ST,ROCK ISLAND,IL,61201
20228,LOUIS A WEISS MEMORIAL HOSPITAL,Proprietary,4646 N MARINE DRIVE,CHICAGO,IL,60640
20229,ADVOCATE GOOD SAMARITAN HOSPITAL,Voluntary non-profit - Church,3815 HIGHLAND AVENUE,DOWNERS GROVE,IL,60515
20230,PINNACLE HOSPITAL,Physician,9301 CONNECTICUT DR,CROWN POINT,IN,46307
20231,REID HEALTH,Voluntary non-profit - Private,1100 REID PKWY,RICHMOND,IN,47374
20232,INDIANA UNIVERSITY HEALTH PAOLI HOSPITAL,Voluntary non-profit - Private,642 W HOSPITAL RD,PAOLI,IN,47454
20233,WITHAM HEALTH SERVICES,Government - Local,2605 N LEBANON ST,LEBANON,IN,46052
20234,HIGHPOINT HEALTH,Government - Local,600 WILSON CREEK RD,LAWRENCEBURG,IN,47025
20235,BAPTIST HEALTH FLOYD,Voluntary non-profit - Private,1850 STATE ST,NEW ALBANY,IN,47150
20236,HENRY COUNTY MEMORIAL HOSPITAL,Government - Local,1000 N 16TH ST,NEW CASTLE,IN,47362
20237,PARKVIEW WHITLEY HOSPITAL,Voluntary non-profit - Private,1260 E SR 205,COLUMBIA CITY,IN,46725
20238,ST VINCENT RANDOLPH HOSPITAL INC,Voluntary non-profit - Private,473 E GREENVILLE AVE,WINCHESTER,IN,47394
20239,INDIANA UNIVERSITY HEALTH BALL MEMORIAL HOSPITAL,Voluntary non-profit - Private,2401 UNIVERSITY AVE,MUNCIE,IN,47303
20240,ST VINCENT WARRICK,Voluntary non-profit - Private,1116 MILLIS AVE,BOONVILLE,IN,47601
20241,STARKE HOSPITAL,Proprietary,102 E CULVER RD,KNOX,IN,46534
20242,DUKES MEMORIAL HOSPITAL,Voluntary non-profit - Private,275 W 12TH ST,PERU,IN,46970
20243,COLUMBUS REGIONAL HOSPITAL,Government - Local,2400 E 17TH ST,COLUMBUS,IN,47201
20244,IU HEALTH BLOOMINGTON HOSPITAL,Voluntary non-profit - Private,601 W SECOND ST,BLOOMINGTON,IN,47403
20245,MEMORIAL HOSPITAL OF SOUTH BEND,Voluntary non-profit - Private,615 N MICHIGAN ST,SOUTH BEND,IN,46601
20246,DEKALB HEALTH,Voluntary non-profit - Private,1316 E SEVENTH ST,AUBURN,IN,46706
20247,PORTER REGIONAL HOSPITAL,Proprietary,85 EAST US HWY 6,VALPARAISO,IN,46383
20248,UNION HOSPITAL INC,Voluntary non-profit - Private,1606 N SEVENTH ST,TERRE HAUTE,IN,47804
20249,ANTHONY MEDICAL CENTER,Government - Hospital District or Authority,1101 EAST SPRING STREET,ANTHONY,KS,67003
20250,LABETTE HEALTH,Government - Local,1902 SOUTH US HWY 59,PARSONS,KS,67357
20251,OSWEGO COMMUNITY HOSPITAL,Proprietary,800 BARKER DRIVE,OSWEGO,KS,67356
20252,GOODLAND REGIONAL MEDICAL CENTER,Government - Local,220 WEST SECOND STREET,GOODLAND,KS,67735
20253,SEDAN CITY HOSPITAL,Government - Local,300 NORTH STREET,SEDAN,KS,67361
20254,CHEYENNE COUNTY HOSPITAL,Voluntary non-profit - Private,210 WEST 1ST STREET,ST FRANCIS,KS,67756
20255,OHIO COUNTY HOSPITAL,Proprietary,1211 OLD MAIN STREET,HARTFORD,KY,42347
20256,FLEMING COUNTY HOSPITAL,Voluntary non-profit - Other,55 FOUNDATION DRIVE,FLEMINGSBURG,KY,41041
20257,MARY BRECKINRIDGE ARH HOSPITAL,Voluntary non-profit - Private,130 KATE IRELAND DRIVE,HYDEN,KY,41749
20258,THE MEDICAL CENTER AT ALBANY,Voluntary non-profit - Private,723 BURKESVILLE ROAD,ALBANY,KY,42602
20259,ROCKCASTLE REGIONAL HOSPITAL & RESPIRATORY CARE CT,Voluntary non-profit - Private,145 NEWCOMB AVENUE,MOUNT VERNON,KY,40456
20260,CUMBERLAND COUNTY HOSPITAL,Government - Local,299 GLASGOW ROAD,BURKESVILLE,KY,42717
20261,UNIVERSITY HEALTH CONWAY,Proprietary,4864 JACKSON STREET,MONROE,LA,71202
20262,ST BERNARD PARISH HOSPITAL,Government - Hospital District or Authority,8000 WEST JUDGE PEREZ DRIVE,CHALMETTE,LA,70043
20263,HOOD MEMORIAL HOSPITAL,Government - Hospital District or Authority,301 W WALNUT STREET,AMITE,LA,70422
20264,SOUTHERN SURGICAL HOSPITAL,Physician,1700 W LINDBERG DRIVE,SLIDELL,LA,70458
20265,IBERIA MEDICAL CENTER,Government - Hospital District or Authority,2315 E MAIN STREET,NEW IBERIA,LA,70562
20266,ST MARTIN HOSPITAL,Voluntary non-profit - Private,210 CHAMPAGNE BOULEVARD,BREAUX BRIDGE,LA,70517
20267,LOWELL GENERAL HOSPITAL,Voluntary non-profit - Private,295 VARNUM AVENUE,LOWELL,MA,1854
20268,MERCY MEDICAL CTR,Voluntary non-profit - Private,271 CAREW STREET,SPRINGFIELD,MA,1104
20269,ST ELIZABETH'S MEDICAL CENTER,Proprietary,736 CAMBRIDGE STREET,BRIGHTON,MA,2135
20270,MASSACHUSETTS EYE AND EAR INFIRMARY -,Voluntary non-profit - Private,243 CHARLES STREET,BOSTON,MA,2114
20271,NEWTON-WELLESLEY HOSPITAL,Voluntary non-profit - Other,2014 WASHINGTON STREET,NEWTON,MA,2462
20272,SAINT ANNE'S HOSPITAL,Proprietary,795 MIDDLE STREET,FALL RIVER,MA,2721
20273,NEW ENGLAND BAPTIST HOSPITAL,Voluntary non-profit - Private,125 PARKER HILL AVENUE,BOSTON,MA,2120
20274,JOHNS HOPKINS BAYVIEW MEDICAL CENTER,Voluntary non-profit - Private,4940 EASTERN AVENUE,BALTIMORE,MD,21224
20275,UNIVERSITY OF MARYLAND ST JOSEPH MEDICAL CENTER,Voluntary non-profit - Private,7601 OSLER DRIVE,TOWSON,MD,21204
20276,MEDSTAR SAINT MARY'S HOSPITAL,Voluntary non-profit - Private,25500 POINT LOOKOUT ROAD,LEONARDTOWN,MD,20650
20277,MEDSTAR UNION MEMORIAL HOSPITAL,Voluntary non-profit - Other,201 EAST UNIVERSITY PARKWAY,BALTIMORE,MD,21218
20278,ANNE ARUNDEL MEDICAL CENTER,Voluntary non-profit - Private,2001 MEDICAL PARKWAY,ANNAPOLIS,MD,21401
20279,MEDSTAR SOUTHERN MARYLAND HOSPITAL CENTER,Voluntary non-profit - Private,7503 SURRATTS ROAD,CLINTON,MD,20735
20280,SEBASTICOOK VALLEY HEALTH,Voluntary non-profit - Private,447 NORTH MAIN STREET,PITTSFIELD,ME,4967
20281,FRANKLIN MEMORIAL HOSPITAL,Voluntary non-profit - Private,111 FRANKLIN HEALTH COMMONS,FARMINGTON,ME,4938
20282,MAYO REGIONAL HOSPITAL,Government - Hospital District or Authority,897 WEST MAIN STREET,DOVER FOXCROFT,ME,4426
20283,BLUE HILL MEMORIAL HOSPITAL,Voluntary non-profit - Private,57 WATER STREET,BLUE HILL,ME,4614
20284,CARY MEDICAL CENTER,Government - Local,"163 VAN BUREN RD, SUITE 1",CARIBOU,ME,4736
20285,HURON VALLEY-SINAI HOSPITAL,Proprietary,ONE WILLIAM CARLS DRIVE,COMMERCE TOWNSHIP,MI,48382
20286,MUNSON HEALTHCARE CHARLEVOIX HOSPITAL,Voluntary non-profit - Other,14700 LAKESHORE DRIVE,CHARLEVOIX,MI,49720
20287,SPECTRUM HEALTH REED CITY HOSPITAL,Voluntary non-profit - Private,"300 N PATTERSON, PO BOX 75",REED CITY,MI,49677
20288,MCLAREN GREATER LANSING,Voluntary non-profit - Private,401 W GREENLAWN AVE,LANSING,MI,48910
20289,MCLAREN NORTHERN MICHIGAN,Voluntary non-profit - Other,416 CONNABLE AVE,PETOSKEY,MI,49770
20290,ESSENTIA HEALTH FOSSTON,Voluntary non-profit - Private,900 HILLIGOSS BOULEVARD SE,FOSSTON,MN,56542
20291,TRI COUNTY HOSPITAL,Voluntary non-profit - Other,415 JEFFERSON STREET NORTH,WADENA,MN,56482
20292,MERCY HOSPITAL,Government - Hospital District or Authority,4572 COUNTY ROAD 61,MOOSE LAKE,MN,55767
20293,GILLETTE CHILDRENS SPECIALTY HOSPITAL,Government - Hospital District or Authority,200 UNIVERSITY AVENUE EAST,SAINT PAUL,MN,55106
20294,SLEEPY EYE MUNICIPAL HOSPITAL,Government - Local,400 FOURTH AVENUE NORTHWEST,SLEEPY EYE,MN,56085
20295,POPLAR BLUFF REGIONAL MEDICAL CENTER,Proprietary,3100 OAK GROVE ROAD,POPLAR BLUFF,MO,63901
20296,FREEMAN NEOSHO HOSPITAL,Voluntary non-profit - Private,113 WEST HICKORY STREET,NEOSHO,MO,64850
20297,PERRY COUNTY MEMORIAL HOSPITAL,Government - Local,434 NORTH WEST STREET,PERRYVILLE,MO,63775
20298,BLACK RIVER COMMUNITY MEDICAL CENTER,Voluntary non-profit - Private,217 PHYSICIANS PARK DRIVE,POPLAR BLUFF,MO,63901
20299,MERCY HOSPITAL SPRINGFIELD,Voluntary non-profit - Private,1235 E CHEROKEE,SPRINGFIELD,MO,65804
20300,COMMONWEALTH HEALTH CENTER,Proprietary,"PO BOX 409CK, NAVY HILL ROAD",GARAPAN,MP,96950
